[{"OBJECT_NAME":"TEVEL2-2","OBJECT_ID":"2025-052K","EPOCH":"2026-03-09T15:33:48.895776","MEAN_MOTION":15.30343745,"ECCENTRICITY":0.0004693,"INCLINATION":97.3987,"RA_OF_ASC_NODE":324.77,"ARG_OF_PERICENTER":105.793,"MEAN_ANOMALY":254.3828,"EPHEMERIS_TYPE":0,"CLASSIFICATION_TYPE":"U","NORAD_CAT_ID":63219,"ELEMENT_SET_NO":999,"REV_AT_EPOCH":5485,"BSTAR":0.00069428,"MEAN_MOTION_DOT":0.00020339,"MEAN_MOTION_DDOT":0},{"OBJECT_NAME":"STARLINK-34114","OBJECT_ID":"2025-095R","EPOCH":"2026-03-08T09:10:51.516480","MEAN_MOTION":15.2760225,"ECCENTRICITY":8.94e-5,"INCLINATION":43.0021,"RA_OF_ASC_NODE":183.9699,"ARG_OF_PERICENTER":231.7805,"MEAN_ANOMALY":128.2966,"EPHEMERIS_TYPE":0,"CLASSIFICATION_TYPE":"U","NORAD_CAT_ID":63905,"ELEMENT_SET_NO":999,"REV_AT_EPOCH":4757,"BSTAR":0.0013938171,"MEAN_MOTION_DOT":0.00038318,"MEAN_MOTION_DDOT":0}]
